[p2023m2(panstarrs)]
absolute_magnitude             = 12.5
discovery                      = 2023-06-22
iau_designation                = P/2023 M2
name                           = P/2023 M2 (PANSTARRS)
orbit_ArgOfPericenter          = 243.2134
orbit_AscendingNode            = 83.2513
orbit_Eccentricity             = 0.369889
orbit_Epoch                    = 2460600.5
orbit_Inclination              = 19.7273
orbit_PericenterDistance       = 3.510331
orbit_TimeAtPericenter         = 2460151.8113
orbit_good                     = 1000
ref                            = MPEC 2023-R20
slope_parameter                = 4
type                           = comet

[p2023m4(atlas)]
absolute_magnitude             = 12.8
discovery                      = 2023-06-21
iau_designation                = P/2023 M4
name                           = P/2023 M4 (ATLAS)
orbit_ArgOfPericenter          = 320.6186
orbit_AscendingNode            = 296.2916
orbit_Eccentricity             = 0.278981
orbit_Epoch                    = 2460600.5
orbit_Inclination              = 7.5922
orbit_PericenterDistance       = 3.929135
orbit_TimeAtPericenter         = 2459683.8934
orbit_good                     = 1000
ref                            = MPEC 2023-R20
slope_parameter                = 4
type                           = comet

[p2023s1()]
absolute_magnitude             = 11.5
discovery                      = 2023-09-20
iau_designation                = P/2023 S1
name                           = P/2023 S1 ()
orbit_ArgOfPericenter          = 180.2708
orbit_AscendingNode            = 317.2937
orbit_Eccentricity             = 0.318885
orbit_Epoch                    = 2460600.5
orbit_Inclination              = 9.1559
orbit_PericenterDistance       = 2.619727
orbit_TimeAtPericenter         = 2460730.5513
orbit_good                     = 1000
ref                            = MPEC 2023-XP6
slope_parameter                = 4
type                           = comet

[p2023t1(panstarrs)]
absolute_magnitude             = 14
discovery                      = 2023-10-09
iau_designation                = P/2023 T1
name                           = P/2023 T1 (PANSTARRS)
orbit_ArgOfPericenter          = 202.8758
orbit_AscendingNode            = 249.6004
orbit_Eccentricity             = 0.335571
orbit_Epoch                    = 2460200.5
orbit_Inclination              = 6.6029
orbit_PericenterDistance       = 2.816441
orbit_TimeAtPericenter         = 2460453.4338
orbit_good                     = 1000
ref                            = MPEC 2023-XP6
slope_parameter                = 4
type                           = comet

[p2023v2(panstarrs)]
absolute_magnitude             = 13.5
iau_designation                = P/2023 V2
name                           = P/2023 V2 (PANSTARRS)
orbit_ArgOfPericenter          = 330.5412
orbit_AscendingNode            = 95.4731
orbit_Eccentricity             = 0.570593
orbit_Epoch                    = 2460600.5
orbit_Inclination              = 9.888
orbit_PericenterDistance       = 3.104113
orbit_TimeAtPericenter         = 2460344.3599
orbit_good                     = 1000
ref                            = MPEC 2023-XP6
slope_parameter                = 4
type                           = comet

[p2023v6(panstarrs)]
absolute_magnitude             = 11.5
discovery                      = 2023-11-08
iau_designation                = P/2023 V6
name                           = P/2023 V6 (PANSTARRS)
orbit_ArgOfPericenter          = 193.3441
orbit_AscendingNode            = 189.8356
orbit_Eccentricity             = 0.176721
orbit_Epoch                    = 2460600.5
orbit_Inclination              = 3.9709
orbit_PericenterDistance       = 4.375367
orbit_TimeAtPericenter         = 2459924.4993
orbit_good                     = 1000
ref                            = MPEC 2023-XP6
slope_parameter                = 4
type                           = comet

[p2023x3(panstarrs)]
absolute_magnitude             = 15.5
discovery                      = 2023-12-07
iau_designation                = P/2023 X3
name                           = P/2023 X3 (PANSTARRS)
orbit_ArgOfPericenter          = 40.7213
orbit_AscendingNode            = 62.0133
orbit_Eccentricity             = 0.287693
orbit_Epoch                    = 2460200.5
orbit_Inclination              = 4.4831
orbit_PericenterDistance       = 3.030372
orbit_TimeAtPericenter         = 2460421.9391
orbit_good                     = 1000
ref                            = MPEC 2023-XQ9
slope_parameter                = 4
type                           = comet

[p2023y1(gibbs)]
absolute_magnitude             = 17.1
discoverer                     = A.R. Gibbs
discovery                      = 2023-12-17
iau_designation                = P/2023 Y1
name                           = P/2023 Y1 (Gibbs)
orbit_ArgOfPericenter          = 51.4344
orbit_AscendingNode            = 78.8572
orbit_Eccentricity             = 0.445089
orbit_Epoch                    = 2460400.5
orbit_Inclination              = 6.3841
orbit_PericenterDistance       = 2.079798
orbit_TimeAtPericenter         = 2460278.2569
orbit_good                     = 1000
ref                            = MPEC 2023-Y60
slope_parameter                = 4
type                           = comet

[p2023y2(gibbs)]
absolute_magnitude             = 15.5
discoverer                     = A.R. Gibbs
discovery                      = 2023-12-17
iau_designation                = P/2023 Y2
name                           = P/2023 Y2 (Gibbs)
orbit_ArgOfPericenter          = 16.8169
orbit_AscendingNode            = 79.23
orbit_Eccentricity             = 0.392187
orbit_Epoch                    = 2460400.5
orbit_Inclination              = 6.9927
orbit_PericenterDistance       = 2.276047
orbit_TimeAtPericenter         = 2460166.3815
orbit_good                     = 1000
ref                            = MPEC 2024-F34
slope_parameter                = 4
type                           = comet

[p2024f1(panstarrs)]
absolute_magnitude             = 16
discovery                      = 2024-03-18
iau_designation                = P/2024 F1
name                           = P/2024 F1 (PANSTARRS)
orbit_ArgOfPericenter          = 229.5874
orbit_AscendingNode            = 251.5191
orbit_Eccentricity             = 0.460233
orbit_Epoch                    = 2461037.5
orbit_Inclination              = 7.0073
orbit_PericenterDistance       = 1.860141
orbit_TimeAtPericenter         = 2460243.2834
orbit_good                     = 1000
ref                            = MPEC 2024-JU4
slope_parameter                = 4
type                           = comet

